sat06909
1 06909U 73081A   20046.92538397  .00000044  00000-0  36368-4 0  9999
2 06909  89.8146 294.1362 0156177 330.6404  28.6050 13.70546341512256
